FIREFLY-1               
1 62701U 25009CW  26189.47690515  .00000862  00000+0  88886-4 0  9992
2 62701  97.7064 267.1660 0002253 257.5656 102.5312 14.92729750 80498
FIREFLY-2               
1 62704U 25009CZ  26189.45479304  .00000768  00000+0  79810-4 0  9996
2 62704  97.7020 266.9178 0007010  24.5842 335.5711 14.92725968 80497
FIREFLY-3               
1 62710U 25009DF  26189.50023045  .00001220  00000+0  12336-3 0  9999
2 62710  97.7054 267.2188 0004885  88.5412 271.6367 14.92790639 80513
