{"fetched_at":"2026-07-08T17:59:43.799Z","source":"https://celestrak.org/NORAD/elements/gp.php?NAME=FIREFLY&FORMAT=JSON","constellation":"pixxel","records":[{"OBJECT_NAME":"FIREFLY-1","OBJECT_ID":"2025-009CW","EPOCH":"2026-07-08T11:26:44.604960","CLASSIFICATION_TYPE":"U","MEAN_MOTION":14.9272975,"ECCENTRICITY":0.0002253,"INCLINATION":97.7064,"RA_OF_ASC_NODE":267.166,"ARG_OF_PERICENTER":257.5656,"MEAN_ANOMALY":102.5312,"EPHEMERIS_TYPE":0,"NORAD_CAT_ID":62701,"ELEMENT_SET_NO":999,"REV_AT_EPOCH":8049,"BSTAR":0.000088886,"MEAN_MOTION_DOT":0.00000862,"MEAN_MOTION_DDOT":0},{"OBJECT_NAME":"FIREFLY-2","OBJECT_ID":"2025-009CZ","EPOCH":"2026-07-08T10:54:54.118656","CLASSIFICATION_TYPE":"U","MEAN_MOTION":14.92725968,"ECCENTRICITY":0.000701,"INCLINATION":97.702,"RA_OF_ASC_NODE":266.9178,"ARG_OF_PERICENTER":24.5842,"MEAN_ANOMALY":335.5711,"EPHEMERIS_TYPE":0,"NORAD_CAT_ID":62704,"ELEMENT_SET_NO":999,"REV_AT_EPOCH":8049,"BSTAR":0.00007981,"MEAN_MOTION_DOT":0.00000768,"MEAN_MOTION_DDOT":0},{"OBJECT_NAME":"FIREFLY-3","OBJECT_ID":"2025-009DF","EPOCH":"2026-07-08T12:00:19.910880","CLASSIFICATION_TYPE":"U","MEAN_MOTION":14.92790639,"ECCENTRICITY":0.0004885,"INCLINATION":97.7054,"RA_OF_ASC_NODE":267.2188,"ARG_OF_PERICENTER":88.5412,"MEAN_ANOMALY":271.6367,"EPHEMERIS_TYPE":0,"NORAD_CAT_ID":62710,"ELEMENT_SET_NO":999,"REV_AT_EPOCH":8051,"BSTAR":0.00012336,"MEAN_MOTION_DOT":0.0000122,"MEAN_MOTION_DDOT":0}]}
